[{"OBJECT_NAME":"COSMOS 1408 DEB","OBJECT_ID":"1982-092SW","EPOCH":"2023-09-15T05:38:26.591136","MEAN_MOTION":15.31423995,"ECCENTRICITY":0.0033163,"INCLINATION":82.6233,"RA_OF_ASC_NODE":182.102,"ARG_OF_PERICENTER":190.4423,"MEAN_ANOMALY":169.6134,"EPHEMERIS_TYPE":0,"CLASSIFICATION_TYPE":"U","NORAD_CAT_ID":50058,"ELEMENT_SET_NO":999,"REV_AT_EPOCH":10154,"BSTAR":0.00028082,"MEAN_MOTION_DOT":8.703e-5,"MEAN_MOTION_DDOT":0},{"OBJECT_NAME":"COSMOS 1408 DEB","OBJECT_ID":"1982-092TH","EPOCH":"2023-09-15T12:36:51.589440","MEAN_MOTION":15.34591485,"ECCENTRICITY":0.006625,"INCLINATION":82.5067,"RA_OF_ASC_NODE":180.1461,"ARG_OF_PERICENTER":223.4156,"MEAN_ANOMALY":136.186,"EPHEMERIS_TYPE":0,"CLASSIFICATION_TYPE":"U","NORAD_CAT_ID":50069,"ELEMENT_SET_NO":999,"REV_AT_EPOCH":10106,"BSTAR":0.00089312,"MEAN_MOTION_DOT":0.00032271,"MEAN_MOTION_DDOT":0},{"OBJECT_NAME":"COSMOS 1408 DEB","OBJECT_ID":"1982-092TS","EPOCH":"2023-09-15T16:44:49.036992","MEAN_MOTION":16.4203072,"ECCENTRICITY":0.0012378,"INCLINATION":82.5087,"RA_OF_ASC_NODE":171.3461,"ARG_OF_PERICENTER":201.4556,"MEAN_ANOMALY":158.6227,"EPHEMERIS_TYPE":0,"CLASSIFICATION_TYPE":"U","NORAD_CAT_ID":50078,"ELEMENT_SET_NO":999,"REV_AT_EPOCH":10125,"BSTAR":0.00074821,"MEAN_MOTION_DOT":0.16360152,"MEAN_MOTION_DDOT":-1.1929e-6},{"OBJECT_NAME":"COSMOS 1408 DEB","OBJECT_ID":"1982-092VP","EPOCH":"2023-09-15T04:49:40.888416","MEAN_MOTION":15.44461599,"ECCENTRICITY":0.0009917,"INCLINATION":82.5678,"RA_OF_ASC_NODE":169.3,"ARG_OF_PERICENTER":161.6795,"MEAN_ANOMALY":198.4813,"EPHEMERIS_TYPE":0,"CLASSIFICATION_TYPE":"U","NORAD_CAT_ID":50123,"ELEMENT_SET_NO":999,"REV_AT_EPOCH":10229,"BSTAR":0.00059653,"MEAN_MOTION_DOT":0.00027746,"MEAN_MOTION_DDOT":0},{"OBJECT_NAME":"COSMOS 1408 DEB","OBJECT_ID":"1982-092YZ","EPOCH":"2023-09-15T06:56:39.370848","MEAN_MOTION":15.46443879,"ECCENTRICITY":0.0015409,"INCLINATION":82.6747,"RA_OF_ASC_NODE":179.8208,"ARG_OF_PERICENTER":224.7771,"MEAN_ANOMALY":135.2236,"EPHEMERIS_TYPE":0,"CLASSIFICATION_TYPE":"U","NORAD_CAT_ID":50284,"ELEMENT_SET_NO":999,"REV_AT_EPOCH":9872,"BSTAR":0.00065097,"MEAN_MOTION_DOT":0.00032493,"MEAN_MOTION_DDOT":0},{"OBJECT_NAME":"COSMOS 1408 DEB","OBJECT_ID":"1982-092AAP","EPOCH":"2023-09-15T10:27:50.364576","MEAN_MOTION":15.59351073,"ECCENTRICITY":0.0027966,"INCLINATION":82.5366,"RA_OF_ASC_NODE":157.7993,"ARG_OF_PERICENTER":64.7374,"MEAN_ANOMALY":295.6775,"EPHEMERIS_TYPE":0,"CLASSIFICATION_TYPE":"U","NORAD_CAT_ID":50329,"ELEMENT_SET_NO":999,"REV_AT_EPOCH":9829,"BSTAR":0.00054577,"MEAN_MOTION_DOT":0.00044,"MEAN_MOTION_DDOT":0},{"OBJECT_NAME":"COSMOS 1408 DEB","OBJECT_ID":"1982-092ABK","EPOCH":"2023-09-15T18:03:20.750400","MEAN_MOTION":15.53973954,"ECCENTRICITY":0.0021889,"INCLINATION":82.6856,"RA_OF_ASC_NODE":179.3366,"ARG_OF_PERICENTER":193.3566,"MEAN_ANOMALY":166.7111,"EPHEMERIS_TYPE":0,"CLASSIFICATION_TYPE":"U","NORAD_CAT_ID":50349,"ELEMENT_SET_NO":999,"REV_AT_EPOCH":9847,"BSTAR":0.00076785,"MEAN_MOTION_DOT":0.00050351,"MEAN_MOTION_DDOT":0},{"OBJECT_NAME":"COSMOS 1408 DEB","OBJECT_ID":"1982-092ABM","EPOCH":"2023-09-15T13:40:22.140480","MEAN_MOTION":15.05522348,"ECCENTRICITY":0.0159973,"INCLINATION":82.5454,"RA_OF_ASC_NODE":207.8594,"ARG_OF_PERICENTER":319.0486,"MEAN_ANOMALY":39.8812,"EPHEMERIS_TYPE":0,"CLASSIFICATION_TYPE":"U","NORAD_CAT_ID":50351,"ELEMENT_SET_NO":999,"REV_AT_EPOCH":9974,"BSTAR":0.0016083,"MEAN_MOTION_DOT":0.00031029,"MEAN_MOTION_DDOT":0},{"OBJECT_NAME":"COSMOS 1408 DEB","OBJECT_ID":"1982-092ABZ","EPOCH":"2023-09-15T05:35:51.370080","MEAN_MOTION":15.20915668,"ECCENTRICITY":0.0086613,"INCLINATION":82.4226,"RA_OF_ASC_NODE":182.0136,"ARG_OF_PERICENTER":309.3573,"MEAN_ANOMALY":50.0009,"EPHEMERIS_TYPE":0,"CLASSIFICATION_TYPE":"U","NORAD_CAT_ID":50363,"ELEMENT_SET_NO":999,"REV_AT_EPOCH":9767,"BSTAR":0.0012318,"MEAN_MOTION_DOT":0.00030283,"MEAN_MOTION_DDOT":0},{"OBJECT_NAME":"COSMOS 1408 DEB","OBJECT_ID":"1982-092ADS","EPOCH":"2023-09-15T11:49:15.808512","MEAN_MOTION":14.22663938,"ECCENTRICITY":0.0492302,"INCLINATION":82.2488,"RA_OF_ASC_NODE":264.4419,"ARG_OF_PERICENTER":269.3116,"MEAN_ANOMALY":85.1656,"EPHEMERIS_TYPE":0,"CLASSIFICATION_TYPE":"U","NORAD_CAT_ID":50404,"ELEMENT_SET_NO":999,"REV_AT_EPOCH":9244,"BSTAR":0.0020465,"MEAN_MOTION_DOT":0.00016487,"MEAN_MOTION_DDOT":0},{"OBJECT_NAME":"COSMOS 1408 DEB","OBJECT_ID":"1982-092AGW","EPOCH":"2023-09-15T13:43:29.212032","MEAN_MOTION":15.29630473,"ECCENTRICITY":0.009918,"INCLINATION":82.5254,"RA_OF_ASC_NODE":198.7804,"ARG_OF_PERICENTER":287.7548,"MEAN_ANOMALY":71.2887,"EPHEMERIS_TYPE":0,"CLASSIFICATION_TYPE":"U","NORAD_CAT_ID":50523,"ELEMENT_SET_NO":999,"REV_AT_EPOCH":9576,"BSTAR":0.0023254,"MEAN_MOTION_DOT":0.00078216,"MEAN_MOTION_DDOT":0},{"OBJECT_NAME":"COSMOS 1408 DEB","OBJECT_ID":"1982-092AHJ","EPOCH":"2023-09-15T12:10:41.166624","MEAN_MOTION":15.45112445,"ECCENTRICITY":0.0051487,"INCLINATION":82.5168,"RA_OF_ASC_NODE":179.0068,"ARG_OF_PERICENTER":213.6829,"MEAN_ANOMALY":146.1145,"EPHEMERIS_TYPE":0,"CLASSIFICATION_TYPE":"U","NORAD_CAT_ID":50535,"ELEMENT_SET_NO":999,"REV_AT_EPOCH":9686,"BSTAR":0.0013322,"MEAN_MOTION_DOT":0.0006675,"MEAN_MOTION_DDOT":0},{"OBJECT_NAME":"COSMOS 1408 DEB","OBJECT_ID":"1982-092AJK","EPOCH":"2023-09-15T18:35:46.087872","MEAN_MOTION":15.44430538,"ECCENTRICITY":0.0059571,"INCLINATION":82.5239,"RA_OF_ASC_NODE":180.2952,"ARG_OF_PERICENTER":208.8574,"MEAN_ANOMALY":150.9377,"EPHEMERIS_TYPE":0,"CLASSIFICATION_TYPE":"U","NORAD_CAT_ID":50560,"ELEMENT_SET_NO":999,"REV_AT_EPOCH":9648,"BSTAR":0.0013327,"MEAN_MOTION_DOT":0.00066328,"MEAN_MOTION_DDOT":0},{"OBJECT_NAME":"COSMOS 1408 DEB","OBJECT_ID":"1982-092AJW","EPOCH":"2023-09-15T01:57:24.844320","MEAN_MOTION":15.38757389,"ECCENTRICITY":0.0026293,"INCLINATION":82.7222,"RA_OF_ASC_NODE":189.7767,"ARG_OF_PERICENTER":224.1028,"MEAN_ANOMALY":135.8122,"EPHEMERIS_TYPE":0,"CLASSIFICATION_TYPE":"U","NORAD_CAT_ID":50578,"ELEMENT_SET_NO":999,"REV_AT_EPOCH":9759,"BSTAR":0.00058286,"MEAN_MOTION_DOT":0.00022659,"MEAN_MOTION_DDOT":0},{"OBJECT_NAME":"COSMOS 1408 DEB","OBJECT_ID":"1982-092ALP","EPOCH":"2023-09-15T11:20:18.093696","MEAN_MOTION":15.49653091,"ECCENTRICITY":0.0018206,"INCLINATION":82.5652,"RA_OF_ASC_NODE":171.2603,"ARG_OF_PERICENTER":181.9663,"MEAN_ANOMALY":178.152,"EPHEMERIS_TYPE":0,"CLASSIFICATION_TYPE":"U","NORAD_CAT_ID":50619,"ELEMENT_SET_NO":999,"REV_AT_EPOCH":9723,"BSTAR":0.00078329,"MEAN_MOTION_DOT":0.00043841,"MEAN_MOTION_DDOT":0},{"OBJECT_NAME":"COSMOS 1408 DEB","OBJECT_ID":"1982-092ALR","EPOCH":"2023-09-15T06:45:05.057856","MEAN_MOTION":15.26064723,"ECCENTRICITY":0.0053374,"INCLINATION":82.585,"RA_OF_ASC_NODE":183.9985,"ARG_OF_PERICENTER":217.4752,"MEAN_ANOMALY":142.2761,"EPHEMERIS_TYPE":0,"CLASSIFICATION_TYPE":"U","NORAD_CAT_ID":50621,"ELEMENT_SET_NO":999,"REV_AT_EPOCH":9648,"BSTAR":0.00033449,"MEAN_MOTION_DOT":9.016e-5,"MEAN_MOTION_DDOT":0}]
