COSMOS 1408 DEB         
1 50058U 82092SW  23258.23502999  .00008703  00000+0  28082-3 0  9998
2 50058  82.6233 182.1020 0033163 190.4423 169.6134 15.31423995101540
COSMOS 1408 DEB         
1 50069U 82092TH  23258.52559710  .00032271  00000+0  89312-3 0  9995
2 50069  82.5067 180.1461 0066250 223.4156 136.1860 15.34591485101061
COSMOS 1408 DEB         
1 50078U 82092TS  23258.69778978  .16360152 -11929-5  74821-3 0  9999
2 50078  82.5087 171.3461 0012378 201.4556 158.6227 16.42030720101254
COSMOS 1408 DEB         
1 50123U 82092VP  23258.20116769  .00027746  00000+0  59653-3 0  9990
2 50123  82.5678 169.3000 0009917 161.6795 198.4813 15.44461599102295
COSMOS 1408 DEB         
1 50284U 82092YZ  23258.28934457  .00032493  00000+0  65097-3 0  9992
2 50284  82.6747 179.8208 0015409 224.7771 135.2236 15.46443879 98728
COSMOS 1408 DEB         
1 50329U 82092AAP 23258.43599959  .00044000  00000+0  54577-3 0  9991
2 50329  82.5366 157.7993 0027966  64.7374 295.6775 15.59351073 98291
COSMOS 1408 DEB         
1 50349U 82092ABK 23258.75232350  .00050351  00000+0  76785-3 0  9998
2 50349  82.6856 179.3366 0021889 193.3566 166.7111 15.53973954 98476
COSMOS 1408 DEB         
1 50351U 82092ABM 23258.56970070  .00031029  00000+0  16083-2 0  9993
2 50351  82.5454 207.8594 0159973 319.0486  39.8812 15.05522348 99749
COSMOS 1408 DEB         
1 50363U 82092ABZ 23258.23323345  .00030283  00000+0  12318-2 0  9995
2 50363  82.4226 182.0136 0086613 309.3573  50.0009 15.20915668 97674
COSMOS 1408 DEB         
1 50404U 82092ADS 23258.49254408  .00016487  00000+0  20465-2 0  9994
2 50404  82.2488 264.4419 0492302 269.3116  85.1656 14.22663938 92449
COSMOS 1408 DEB         
1 50523U 82092AGW 23258.57186588  .00078216  00000+0  23254-2 0  9995
2 50523  82.5254 198.7804 0099180 287.7548  71.2887 15.29630473 95768
COSMOS 1408 DEB         
1 50535U 82092AHJ 23258.50742091  .00066750  00000+0  13322-2 0  9993
2 50535  82.5168 179.0068 0051487 213.6829 146.1145 15.45112445 96860
COSMOS 1408 DEB         
1 50560U 82092AJK 23258.77483898  .00066328  00000+0  13327-2 0  9993
2 50560  82.5239 180.2952 0059571 208.8574 150.9377 15.44430538 96481
COSMOS 1408 DEB         
1 50578U 82092AJW 23258.08153755  .00022659  00000+0  58286-3 0  9995
2 50578  82.7222 189.7767 0026293 224.1028 135.8122 15.38757389 97594
COSMOS 1408 DEB         
1 50619U 82092ALP 23258.47243164  .00043841  00000+0  78329-3 0  9994
2 50619  82.5652 171.2603 0018206 181.9663 178.1520 15.49653091 97230
COSMOS 1408 DEB         
1 50621U 82092ALR 23258.28130854  .00009016  00000+0  33449-3 0  9997
2 50621  82.5850 183.9985 0053374 217.4752 142.2761 15.26064723 96483
